OSCAR 7 (AO-7)          
1 07530U 74089B   18184.85121436 -.00000025  00000-0  12447-3 0  9994
2 07530 101.6879 151.9223 0011793 304.9087 108.5850 12.53633246996459
UOSAT 2 (UO-11)         
1 14781U 84021B   18185.13819465  .00000038  00000-0  10826-4 0  9998
2 14781  97.6476 220.6304 0009309  36.2965 323.8879 14.83015081846954
LUSAT (LO-19)           
1 20442U 90005G   18184.83176487 -.00000013  00000-0  11344-4 0  9994
2 20442  98.6105 123.2216 0012930 100.0202 260.2442 14.32899164486218
ITAMSAT (IO-26)         
1 22826U 93061D   18185.51558362 -.00000003  00000-0  16687-4 0  9993
2 22826  98.8576 161.9814 0007848 288.5683  71.4646 14.30365499292232
RADIO ROSTO (RS-15)     
1 23439U 94085A   18184.74664696 -.00000028  00000-0  42309-3 0  9999
2 23439  64.8188 322.0515 0156793 179.0806 286.2489 11.27567400968430
JAS-2 (FO-29)           
1 24278U 96046B   18185.16365999 -.00000020  00000-0  13450-4 0  9999
2 24278  98.5168  21.5791 0351357  66.9543 296.8240 13.53084386 80532
TECHSAT 1B (GO-32)      
1 25397U 98043D   18184.82891290 -.00000012  00000-0  13884-4 0  9993
2 25397  98.6503 124.9926 0001324  25.8814 334.2430 14.23647804 38098
ISS (ZARYA)             
1 25544U 98067A   18184.80969102  .00001614  00000-0  31745-4 0  9993
2 25544  51.6414 295.8524 0003435 262.6267 204.2868 15.54005638121106
PCSAT (NO-44)           
1 26931U 01043C   18184.64531634 -.00000041  00000-0  15933-4 0  9994
2 26931  67.0494 186.9421 0008010 272.2719  87.7465 14.30509674874907
SAUDISAT 1C (SO-50)     
1 27607U 02058C   18184.95353349 -.00000054  00000-0  13125-4 0  9996
2 27607  64.5556  38.7856 0066999 324.7543  34.9137 14.75461926835300
CUTE-1 (CO-55)          
1 27844U 03031E   18185.54762519  .00000025  00000-0  30840-4 0  9990
2 27844  98.6859 193.9475 0009091 328.1726  31.8902 14.22120934778663
CUBESAT XI-IV (CO-57)   
1 27848U 03031J   18184.94878121  .00000020  00000-0  28954-4 0  9992
2 27848  98.6945 193.7610 0009216 340.9563  19.1269 14.21724170778411
MOZHAYETS 4 (RS-22)     
1 27939U 03042A   18185.57300093  .00000078  00000-0  22417-4 0  9994
2 27939  97.9930 324.2601 0014393  93.6940 330.9758 14.66697911789366
CUBESAT XI-V (CO-58)    
1 28895U 05043F   18184.88966321  .00000071  00000-0  22433-4 0  9995
2 28895  97.9115 335.6702 0017251  21.5424 338.6502 14.63558856676081
CUTE-1.7+APD II (CO-65) 
1 32785U 08021C   18184.85771553  .00000117  00000-0  18363-4 0  9993
2 32785  97.5464 196.2397 0012753 350.4043   9.6929 14.88139591551652
DELFI-C3 (DO-64)        
1 32789U 08021G   18184.92077628  .00000463  00000-0  35812-4 0  9999
2 32789  97.5103 239.3062 0011050 236.1944 123.8232 15.06127654554201
SEEDS II (CO-66)        
1 32791U 08021J   18184.91916442  .00000275  00000-0  33490-4 0  9998
2 32791  97.5352 201.6948 0012493 329.1700  30.8783 14.90578236551922
YUBILEINY (RS-30)       
1 32953U 08025A   18185.50441589  .00000019  00000-0  66324-4 0  9991
2 32953  82.5027   1.9070 0019330 169.6242 190.5240 12.43083870458926
KKS-1 (KISEKI)          
1 33499U 09002H   18185.54126720  .00000054  00000-0  16032-4 0  9994
2 33499  98.3567   7.8711 0008131 232.8280 127.2187 14.75341320507741
SWISSCUBE               
1 35932U 09051B   18184.99648011  .00000095  00000-0  32536-4 0  9994
2 35932  98.5477 336.5624 0008297 150.9457 209.2203 14.56172242465883
BEESAT                  
1 35933U 09051C   18184.95380439  .00000070  00000-0  26726-4 0  9995
2 35933  98.5516 338.0772 0006242 160.7831 199.3602 14.56274670465905
ITUPSAT 1               
1 35935U 09051E   18184.94931068  .00000047  00000-0  22041-4 0  9996
2 35935  98.5628 338.3251 0008616 159.4588 200.6956 14.55450522465737
XIWANG-1 (HOPE-1)       
1 36122U 09072B   18185.49365760 -.00000062  00000-0 -51351-4 0  9994
2 36122 100.0744 199.3188 0008263  74.3537 285.8488 13.16345188410928
JUGNU                   
1 37839U 11058B   18185.51373367  .00000300  00000-0  18241-4 0  9996
2 37839  19.9617 292.1896 0019100  77.6348  12.1660 14.12622635347820
SRMSAT                  
1 37841U 11058D   18185.47540050  .00000290  00000-0  14397-4 0  9995
2 37841  19.9734 341.9791 0011860 320.9154  71.8453 14.10609187347326
M-CUBED & EXP-1 PRIME   
1 37855U 11061F   18184.83354854  .00000518  00000-0  34523-4 0  9994
2 37855 101.7150 255.8804 0176347  33.0362 328.1720 15.04511626364155
STRAND-1                
1 39090U 13009E   18185.12276922 -.00000004  00000-0  14015-4 0  9998
2 39090  98.5204  31.2859 0008065 244.3620 115.6733 14.35031243280258
SOMP                    
1 39134U 13015E   18184.92046025  .00000666  00000-0  40944-4 0  9993
2 39134  64.8646  72.7795 0010813 215.9687 144.0714 15.19226512287062
BEESAT-3                
1 39135U 13015F   18184.90395858  .00000544  00000-0  37581-4 0  9991
2 39135  64.8699  86.4052 0019060 237.6700 122.2581 15.16727050286798
BEESAT-2                
1 39136U 13015G   18185.14339521  .00000460  00000-0  33756-4 0  9991
2 39136  64.8705  88.4672 0021327 234.4169 125.4969 15.16192767287168
ZACUBE-1 (TSHEPISOSAT)  
1 39417U 13066B   18185.13869032  .00000090  00000-0  17685-4 0  9995
2 39417  97.5857 212.8717 0060724  99.4875 261.3209 14.80948781249307
GOMX 1                  
1 39430U 13066Q   18185.51622438  .00000111  00000-0  29619-4 0  9993
2 39430  97.6985 161.1432 0149980 275.9744  82.4382 14.59093530245672
CUBEBUG-2 (LO-74)       
1 39440U 13066AA  18185.09244512  .00000112  00000-0  22471-4 0  9990
2 39440  97.6004 199.3246 0081537 139.7927 220.9354 14.75686504248414
FUNCUBE-1 (AO-73)       
1 39444U 13066AE  18184.65298133  .00000165  00000-0  26609-4 0  9998
2 39444  97.5866 213.9580 0059864  96.4663 264.3372 14.81732305248095
UWE-3                   
1 39446U 13066AG  18184.95086006  .00000124  00000-0  23039-4 0  9996
2 39446  97.5916 205.5399 0071630 120.5180 240.3129 14.78220986247003
SPROUT                  
1 39770U 14029E   18185.35051929  .00000638  00000-0  77526-4 0  9997
2 39770  97.8768 286.2538 0009916 145.8877 214.2954 14.86884032222919
UNISAT-6                
1 40012U 14033C   18184.64410187  .00000103  00000-0  22913-4 0  9996
2 40012  97.8061  60.3051 0059221 145.1247 215.3864 14.73832739217127
DUCHIFAT-1              
1 40021U 14033M   18185.31371835  .00000305  00000-0  37199-4 0  9993
2 40021  97.9157 104.0639 0014232 118.4065 241.8589 14.90329711219508
FUNCUBE-3 (EO-79)       
1 40025U 14033R   18185.21949556  .00000140  00000-0  20937-4 0  9996
2 40025  97.9048 100.5834 0013652 124.9120 235.3382 14.88731496219321
NUDT-PHONESAT           
1 40900U 15049B   18185.20871710  .00001232  00000-0  57954-4 0  9993
2 40900  97.4405 193.2639 0012643 337.3583  22.7093 15.21404443154501
ZDPS 2A                 
1 40901U 15049C   18185.49013743  .00000486  00000-0  27866-4 0  9998
2 40901  97.4582 191.5657 0013173 344.9924  15.0917 15.17129050154289
ZDPS 2B                 
1 40902U 15049D   18185.53215821  .00000493  00000-0  28358-4 0  9990
2 40902  97.4483 189.6018 0013147 341.8656  18.2106 15.16922990154275
XW-2A                   
1 40903U 15049E   18185.51963180  .00001083  00000-0  28692-4 0  9994
2 40903  97.3827 220.5466 0013221 334.5590  25.5004 15.40576339156479
KAITUO 1A               
1 40904U 15049F   18185.46041133  .00000249  00000-0  16801-4 0  9996
2 40904  97.4582 188.7219 0014294 345.0699 171.5988 15.15044526154110
2015-049G               
1 40905U 15049G   18185.20136438  .00000212  00000-0  15239-4 0  9996
2 40905  97.4586 186.5150 0015124 337.9020  22.1557 15.13994248153997
XW-2C                   
1 40906U 15049H   18184.96020918  .00000352  00000-0  22228-4 0  9995
2 40906  97.4595 188.1439 0014337 338.1908  21.8712 15.15222778154038
XW-2D                   
1 40907U 15049J   18185.50526844  .00000391  00000-0  24172-4 0  9999
2 40907  97.4570 188.3740 0013561 334.1669  25.8885 15.15376584154127
LILACSAT 2              
1 40908U 15049K   18185.20235541  .00000185  00000-0  13933-4 0  9992
2 40908  97.4682 187.4133 0015323 336.5373  23.5158 15.13530822153946
XW-2F                   
1 40910U 15049M   18184.97830540  .00000624  00000-0  35335-4 0  9996
2 40910  97.4569 189.2022 0014187 331.1233  28.9213 15.16583770153992
XW-2B                   
1 40911U 15049N   18185.52341934  .00000388  00000-0  24090-4 0  9996
2 40911  97.4605 188.9360 0013504 334.7881  25.2691 15.15319683154029
KAITUO 1B               
1 40912U 15049P   18185.07698941  .00000850  00000-0  44038-4 0  9998
2 40912  97.4497 192.1654 0014353 318.4690  82.8385 15.18808486154231
TIANWANG 1C (TW-1C)     
1 40926U 15051B   18185.51923635  .00005124  00000-0  95185-4 0  9994
2 40926  97.1815 227.7821 0008878 202.3673 263.8236 15.49328303155994
TIANWANG 1A (TW-1A)     
1 40928U 15051D   18185.57501222  .00001432  00000-0  39372-4 0  9990
2 40928  97.1834 219.2194 0009995 257.9632 226.5258 15.38802382155451
LAPAN-A2 (IO-86)        
1 40931U 15052B   18184.13394526  .00000596  00000-0 -60470-5 0  9998
2 40931   5.9988  36.3592 0013096 235.7513 124.1269 14.76577744149361
E-ST@R-II               
1 41459U 16025D   18184.74037960  .00000807  00000-0  45962-4 0  9990
2 41459  98.1344 248.3074 0172040  92.9609 269.1289 15.04457809119912
AAUSAT 4                
1 41460U 16025E   18185.23462310  .00001837  00000-0  97658-4 0  9991
2 41460  98.1287 249.3548 0163298  87.2269 274.7633 15.05932899120051
NUSAT 1 (LO-87)         
1 41557U 16033B   18185.26419489  .00000845  00000-0  33545-4 0  9992
2 41557  97.4377 269.4480 0016168 102.0869 258.2183 15.28054583116763
BEESAT-4                
1 41619U 16040W   18185.22676914  .00000857  00000-0  40321-4 0  9996
2 41619  97.4138 248.1374 0012094 162.7714 197.3935 15.22175589100685
ALSAT 1N                
1 41789U 16059G   18185.38453799  .00000087  00000-0  25701-4 0  9995
2 41789  98.1179 247.9230 0029145  35.8151 324.4998 14.64163952 94538
CAS-2T & KS-1Q          
1 41847U 16066G   18185.09071386  .00000037  00000-0  16296-4 0  9998
2 41847  98.7487 214.3475 0365998 194.0981 164.9773 14.37902820 86756
NAYIF-1 (EO-88)         
1 42017U 17008BX  18184.83413243  .00000865  00000-0  38132-4 0  9990
2 42017  97.4470 249.7923 0005454 335.8190  24.2791 15.24498727 76603
LILACSAT-1              
1 42725U 98067ME  18184.85334555  .00013934  00000-0  11728-3 0  9992
2 42725  51.6352 273.0504 0004671 305.5075  54.5487 15.70162135 63135
MAX VALIER SAT          
1 42778U 17036P   18185.15036880  .00000566  00000-0  28323-4 0  9998
2 42778  97.4020 244.5811 0013021  18.5064 341.6643 15.21348796 57081
FOX-1B (AO-91)          
1 43017U 17073E   18184.79850083  .00000160  00000-0  18477-4 0  9993
2 43017  97.7076 115.2393 0258750 217.3121 140.9873 14.78098862 33563
FOX-1D (AO-92)          
1 43137U 18004AC  18184.85500823  .00000614  00000-0  29366-4 0  9995
2 43137  97.5324 247.6014 0010717  49.5049 310.7120 15.22750035 26249
